TEVEL2-6                
1 63215U 25052F   26068.64958975  .00021046  00000+0  70909-3 0  9996
2 63215  97.4016 325.0381 0004769  95.6604 264.5181 15.30760889 54861
STARLINK-34203          
1 64246U 25119P   26068.05716670  .00069725  00000+0  25131-2 0  9996
2 64246  43.0031 310.5368 0002626 280.0912  79.9644 15.27661500 44087
